OBJECT_NAME,OBJECT_ID,EPOCH,MEAN_MOTION,ECCENTRICITY,INCLINATION,RA_OF_ASC_NODE,ARG_OF_PERICENTER,MEAN_ANOMALY,EPHEMERIS_TYPE,CLASSIFICATION_TYPE,NORAD_CAT_ID,ELEMENT_SET_NO,REV_AT_EPOCH,BSTAR,MEAN_MOTION_DOT,MEAN_MOTION_DDOT
IRIDIUM 135,2017-083A,2026-07-20T05:19:27.171264,14.34217578,.00021105,86.3985,308.2074,94.7900,265.3537,0,U,43070,999,44888,-.9950234E-5,-.8E-7,0
IRIDIUM 138,2017-083B,2026-07-20T05:55:59.087424,14.34217443,.00020425,86.4000,307.8969,94.3379,265.8050,0,U,43071,999,44887,.47351412E-4,.152E-5,0
IRIDIUM 116,2017-083C,2026-07-20T00:08:55.241088,14.34216896,.00024966,86.3986,308.2829,97.7429,262.4050,0,U,43072,999,44887,.28565514E-4,.1E-5,0
IRIDIUM 130,2017-083D,2026-07-20T06:05:07.232352,14.34218577,.00023124,86.3993,308.4582,100.4245,259.7212,0,U,43073,999,44885,.96954686E-4,.291E-5,0
IRIDIUM 151,2017-083E,2026-07-20T05:28:35.210784,14.34218019,.000227,86.3988,308.2486,94.9494,265.1961,0,U,43074,999,44887,.47037E-4,.152E-5,0
IRIDIUM 134,2017-083F,2026-07-20T06:23:23.167104,14.34217946,.00022621,86.3988,308.2412,96.6503,263.4951,0,U,43075,999,44884,.8956387E-5,.45E-6,0
IRIDIUM 137,2017-083G,2026-07-20T06:41:39.255648,14.34217678,.00025457,86.3988,308.3296,90.9193,269.2295,0,U,43076,999,44891,-.3491791E-5,.1E-6,0
IRIDIUM 141,2017-083H,2026-07-20T06:32:31.224768,14.34217277,.00021476,86.3986,308.1609,94.0797,266.0644,0,U,43077,999,44891,.9591416E-5,.47E-6,0
IRIDIUM 153,2017-083J,2026-07-20T03:43:11.411616,14.34217402,.00020354,86.3955,276.6881,95.5104,264.6324,0,U,43078,999,45000,-.10042953E-4,-.8E-7,0
IRIDIUM 131,2017-083K,2026-07-20T06:14:15.207936,14.34217289,.00021093,86.3988,308.3543,93.7900,266.3537,0,U,43079,999,44884,-.2058248E-4,-.38E-6,0
IRIDIUM 144,2018-030A,2026-07-19T22:50:55.435200,14.34217153,.00023909,86.3954,276.7015,96.5398,263.6070,0,U,43249,999,43483,.2694331E-5,.27E-6,0
IRIDIUM 149,2018-030B,2026-07-20T04:01:27.437952,14.34217391,.00021408,86.3951,276.5778,93.8636,266.2805,0,U,43250,999,43488,-.11657128E-4,-.13E-6,0
IRIDIUM 157,2018-030C,2026-07-20T04:28:51.389760,14.34218907,.00022994,86.3953,276.6238,94.5055,265.6404,0,U,43251,999,43486,.29724838E-4,.103E-5,0
IRIDIUM 140,2018-030D,2026-07-20T04:56:15.466848,14.34218910,.00022682,86.3954,276.6285,95.7460,264.3994,0,U,43252,999,43492,.43108768E-4,.141E-5,0
IRIDIUM 145,2018-030E,2026-07-19T21:56:07.505664,14.34217344,.00025801,86.3952,276.7225,97.7671,262.3818,0,U,43253,999,43481,.3676198E-5,.3E-6,0
IRIDIUM 146,2018-030F,2026-07-19T18:07:47.484480,14.34217262,.00022729,86.3953,276.8009,95.9475,264.1979,0,U,43254,999,43480,-.6440115E-5,.2E-7,0
IRIDIUM 148,2018-030G,2026-07-20T03:24:55.498464,14.34217829,.00023352,86.3951,276.6822,94.4885,265.6578,0,U,43255,999,43489,.39107113E-4,.129E-5,0
IRIDIUM 142,2018-030H,2026-07-20T04:19:43.497984,14.34217102,.00023092,86.3950,276.5546,96.0843,264.0616,0,U,43256,999,43486,-.5416195E-5,.5E-7,0
IRIDIUM 150,2018-030J,2026-07-20T03:34:03.440352,14.34217266,.00023325,86.3955,276.6857,95.9228,264.2233,0,U,43257,999,43488,.6247557E-5,.37E-6,0
IRIDIUM 143,2018-030K,2026-07-19T22:05:15.484704,14.34217665,.00023422,86.3956,276.8747,95.8548,264.2915,0,U,43258,999,43478,.13754071E-4,.58E-6,0
IRIDIUM 161,2018-047C,2026-07-20T02:25:39.153504,14.43277179,.00021652,86.4456,74.7055,80.8407,279.3039,0,U,43478,999,42988,.40933352E-4,.158E-5,0
IRIDIUM 152,2018-047D,2026-07-20T02:27:22.231296,14.34217427,.00019718,86.3928,74.5659,84.0671,276.0750,0,U,43479,999,42720,-.31881682E-4,-.69E-6,0
IRIDIUM 147,2018-047E,2026-07-20T02:36:30.247488,14.34217938,.00022968,86.3934,74.5694,87.5251,272.6208,0,U,43480,999,42720,.2070155E-4,.78E-6,0
IRIDIUM 110,2018-047F,2026-07-20T02:45:38.089152,14.34217082,.00020373,86.3937,74.6596,78.0242,282.1182,0,U,43481,999,42719,.49973671E-4,.16E-5,0
IRIDIUM 162,2018-047G,2026-07-20T02:16:34.480128,14.43279956,.00021867,86.4455,74.5986,86.7241,273.4210,0,U,43482,999,42987,.40617348E-4,.157E-5,0
IRIDIUM 160,2018-061A,2026-07-20T01:27:38.431008,14.34217872,.00022091,86.3939,43.0457,86.9719,273.1729,0,U,43569,999,41808,.26041396E-4,.93E-6,0
IRIDIUM 166,2018-061B,2026-07-20T02:04:10.481088,14.34217706,.00022798,86.3937,42.9851,89.4405,270.7052,0,U,43570,999,41811,-.780152E-6,.18E-6,0
IRIDIUM 158,2018-061C,2026-07-20T06:19:54.488640,14.34217825,.00021134,86.3937,42.9206,89.0737,271.0701,0,U,43571,999,41810,.44748091E-4,.145E-5,0
IRIDIUM 165,2018-061D,2026-07-20T06:56:26.506752,14.34217576,.00022444,86.3944,42.9569,91.1334,269.0119,0,U,43572,999,41813,.31762171E-4,.109E-5,0
IRIDIUM 155,2018-061E,2026-07-20T02:40:42.444768,14.34217808,.00021408,86.3936,42.8988,90.6933,269.4508,0,U,43573,999,41807,.7985506E-5,.42E-6,0
